[{"OBJECT_NAME":"STARLINK-6376","OBJECT_ID":"2023-099X","EPOCH":"2026-03-09T22:00:01.999584","MEAN_MOTION":15.14373336,"ECCENTRICITY":0.00016799,"INCLINATION":42.9997,"RA_OF_ASC_NODE":246.8696,"ARG_OF_PERICENTER":215.6032,"MEAN_ANOMALY":44.7192,"EPHEMERIS_TYPE":0,"CLASSIFICATION_TYPE":"U","NORAD_CAT_ID":57349,"ELEMENT_SET_NO":999,"REV_AT_EPOCH":578,"BSTAR":0.0065474134,"MEAN_MOTION_DOT":0.00124192,"MEAN_MOTION_DDOT":0},{"OBJECT_NAME":"COSMOS 2535 DEB","OBJECT_ID":"2019-039J","EPOCH":"2026-03-09T22:02:27.714912","MEAN_MOTION":15.13627487,"ECCENTRICITY":0.00116202,"INCLINATION":97.5293,"RA_OF_ASC_NODE":109.4577,"ARG_OF_PERICENTER":13.0457,"MEAN_ANOMALY":347.1072,"EPHEMERIS_TYPE":0,"CLASSIFICATION_TYPE":"U","NORAD_CAT_ID":44632,"ELEMENT_SET_NO":999,"REV_AT_EPOCH":34998,"BSTAR":0.00064044542,"MEAN_MOTION_DOT":0.00011468,"MEAN_MOTION_DDOT":0}]
